ONEWEB-0574             
1 56063U 23043T   26005.29345287 -.00000270  00000+0 -68529-3 0  9998
2 56063  87.9228 276.4553 0001812  75.8441 284.2894 13.21824882136759
ONEWEB-0575             
1 56064U 23043U   26005.14311674  .00000151  00000+0  36134-3 0  9999
2 56064  87.9040 261.2337 0001861  82.5303 277.6039 13.16594240137518
ONEWEB-0576             
1 56065U 23043V   26004.74406322  .00010645  00000+0  27748-1 0  9998
2 56065  87.9044 261.3147 0001340  89.5104 270.6180 13.16672684137453
ONEWEB-0577             
1 56066U 23043W   26005.13045205  .00000148  00000+0  35243-3 0  9990
2 56066  87.9046 261.2369 0002300  79.1557 280.9833 13.16594283137531
ONEWEB-0578             
1 56067U 23043X   26005.28030341  .00000094  00000+0  19690-3 0  9990
2 56067  87.9225 276.4690 0001579  83.1833 276.9480 13.21826450136717
ONEWEB-0579             
1 56068U 23043Y   26005.27040804  .00000077  00000+0  15569-3 0  9997
2 56068  87.9228 276.4589 0001656  63.7154 296.4150 13.21823758136724
ONEWEB-0581             
1 56069U 23043Z   26005.13678569  .00000090  00000+0  20307-3 0  9999
2 56069  87.9041 261.2486 0001929  73.3845 286.7498 13.16594303137502
ONEWEB-0609             
1 56070U 23043AA  26005.26896441  .00000006  00000+0 -18579-4 0  9993
2 56070  87.9014 291.7329 0001609  73.5385 286.5922 13.15548102135013
ONEWEB-0613             
1 56071U 23043AB  26005.26420857  .00000051  00000+0  10232-3 0  9994
2 56071  87.9010 291.7452 0001583  65.0968 295.0327 13.15547546135016
ONEWEB-0630             
1 56072U 23043AC  26005.25945314  .00000068  00000+0  14537-3 0  9994
2 56072  87.9010 291.7175 0001628  63.4190 296.7107 13.15547582135001
ONEWEB-0632             
1 56073U 23043AD  26005.25469733  .00000118  00000+0  28017-3 0  9995
2 56073  87.9007 291.7358 0001823  72.0786 288.0543 13.15549200135002
ONEWEB-0633             
1 56074U 23043AE  26005.24836383  .00000248  00000+0  62532-3 0  9998
2 56074  87.9008 291.7003 0001400  61.4409 298.6863 13.15548180134980
ONEWEB-0634             
1 56075U 23043AF  26005.23410327  .00000239  00000+0  59974-3 0  9990
2 56075  87.9012 291.7544 0001398  81.0705 279.0584 13.15547685134970
ONEWEB-0635             
1 56076U 23043AG  26005.30540624  .00000137  00000+0  32990-3 0  9999
2 56076  87.9005 291.6932 0001959  73.5395 286.5951 13.15548717135011
ONEWEB-0636             
1 56077U 23043AH  26005.22142467  .00000194  00000+0  48087-3 0  9991
2 56077  87.9006 291.7273 0001886  74.2940 285.8398 13.15549299134983
ONEWEB-0637             
1 56078U 23043AJ  26005.29113172 -.00000088  00000+0 -26814-3 0  9998
2 56078  87.9007 291.7302 0001801  82.7411 277.3924 13.15550835135016
